{
  "links" : {
    "next" : "https://api.nasa.gov/neo/rest/v1/feed?start_date=2008-10-16&end_date=2008-10-16&detailed=true&api_key=t0TVs3DtDT2H8Oy2Zy8m2eVrNsAVKAexjcZXUckd",
    "prev" : "https://api.nasa.gov/neo/rest/v1/feed?start_date=2008-10-14&end_date=2008-10-14&detailed=true&api_key=t0TVs3DtDT2H8Oy2Zy8m2eVrNsAVKAexjcZXUckd",
    "self" : "https://api.nasa.gov/neo/rest/v1/feed?start_date=2008-10-15&end_date=2008-10-15&detailed=true&api_key=t0TVs3DtDT2H8Oy2Zy8m2eVrNsAVKAexjcZXUckd"
  },
  "element_count" : 9,
  "near_earth_objects" : {
    "2008-10-15" : [ {
      "links" : {
        "self" : "https://api.nasa.gov/neo/rest/v1/neo/2286079?api_key=t0TVs3DtDT2H8Oy2Zy8m2eVrNsAVKAexjcZXUckd"
      },
      "neo_reference_id" : "2286079",
      "name" : "286079 (2001 TW1)",
      "nasa_jpl_url" : "http://ssd.jpl.nasa.gov/sbdb.cgi?sstr=2286079",
      "absolute_magnitude_h" : 19.2,
      "estimated_diameter" : {
        "kilometers" : {
          "estimated_diameter_min" : 0.3841978911,
          "estimated_diameter_max" : 0.8590926012
        },
        "meters" : {
          "estimated_diameter_min" : 384.1978910643,
          "estimated_diameter_max" : 859.0926012318
        },
        "miles" : {
          "estimated_diameter_min" : 0.2387294278,
          "estimated_diameter_max" : 0.5338152287
        },
        "feet" : {
          "estimated_diameter_min" : 1260.4918089193,
          "estimated_diameter_max" : 2818.5453698252
        }
      },
      "is_potentially_hazardous_asteroid" : false,
      "close_approach_data" : [ {
        "close_approach_date" : "2008-10-15",
        "epoch_date_close_approach" : 1224054000000,
        "relative_velocity" : {
          "kilometers_per_second" : "17.4257411113",
          "kilometers_per_hour" : "62732.6680008578",
          "miles_per_hour" : "38979.6402919775"
        },
        "miss_distance" : {
          "astronomical" : "0.2888850833",
          "lunar" : "112.3762969971",
          "kilometers" : "43216596",
          "miles" : "26853546"
        },
        "orbiting_body" : "Earth"
      } ],
      "orbital_data" : {
        "orbit_id" : "61",
        "orbit_determination_date" : "2017-04-06 09:24:14",
        "orbit_uncertainty" : "0",
        "minimum_orbit_intersection" : ".148978",
        "jupiter_tisserand_invariant" : "6.318",
        "epoch_osculation" : "2458000.5",
        "eccentricity" : ".5260459179027375",
        "semi_major_axis" : ".9112986740691428",
        "inclination" : "31.3294711519555",
        "ascending_node_longitude" : "27.36514338555772",
        "orbital_period" : "317.7529084638715",
        "perihelion_distance" : ".431913726584893",
        "perihelion_argument" : "208.7958439488911",
        "aphelion_distance" : "1.390683621553393",
        "perihelion_time" : "2458150.213479185532",
        "mean_anomaly" : "190.3812457064582",
        "mean_motion" : "1.132955798077083",
        "equinox" : "J2000"
      }
    }, {
      "links" : {
        "self" : "https://api.nasa.gov/neo/rest/v1/neo/3438960?api_key=t0TVs3DtDT2H8Oy2Zy8m2eVrNsAVKAexjcZXUckd"
      },
      "neo_reference_id" : "3438960",
      "name" : "(2008 VL14)",
      "nasa_jpl_url" : "http://ssd.jpl.nasa.gov/sbdb.cgi?sstr=3438960",
      "absolute_magnitude_h" : 21.1,
      "estimated_diameter" : {
        "kilometers" : {
          "estimated_diameter_min" : 0.160160338,
          "estimated_diameter_max" : 0.358129403
        },
        "meters" : {
          "estimated_diameter_min" : 160.1603379786,
          "estimated_diameter_max" : 358.1294030194
        },
        "miles" : {
          "estimated_diameter_min" : 0.0995189894,
          "estimated_diameter_max" : 0.2225312253
        },
        "feet" : {
          "estimated_diameter_min" : 525.4604432536,
          "estimated_diameter_max" : 1174.9652706022
        }
      },
      "is_potentially_hazardous_asteroid" : true,
      "close_approach_data" : [ {
        "close_approach_date" : "2008-10-15",
        "epoch_date_close_approach" : 1224054000000,
        "relative_velocity" : {
          "kilometers_per_second" : "21.5054014656",
          "kilometers_per_hour" : "77419.4452760599",
          "miles_per_hour" : "48105.4325383384"
        },
        "miss_distance" : {
          "astronomical" : "0.2105432387",
          "lunar" : "81.9013214111",
          "kilometers" : "31496822",
          "miles" : "19571218"
        },
        "orbiting_body" : "Earth"
      } ],
      "orbital_data" : {
        "orbit_id" : "18",
        "orbit_determination_date" : "2017-04-06 09:02:13",
        "orbit_uncertainty" : "8",
        "minimum_orbit_intersection" : ".00433264",
        "jupiter_tisserand_invariant" : "3.100",
        "epoch_osculation" : "2454790.5",
        "eccentricity" : ".8181212981469499",
        "semi_major_axis" : "2.213450487624295",
        "inclination" : "1.951982128285022",
        "ascending_node_longitude" : "40.02023454287909",
        "orbital_period" : "1202.826934347849",
        "perihelion_distance" : ".4025795013051075",
        "perihelion_argument" : "243.8015973480019",
        "aphelion_distance" : "4.024321473943482",
        "perihelion_time" : "2454709.557834396098",
        "mean_anomaly" : "24.22557957866437",
        "mean_motion" : ".2992949274079779",
        "equinox" : "J2000"
      }
    }, {
      "links" : {
        "self" : "https://api.nasa.gov/neo/rest/v1/neo/3455742?api_key=t0TVs3DtDT2H8Oy2Zy8m2eVrNsAVKAexjcZXUckd"
      },
      "neo_reference_id" : "3455742",
      "name" : "(2009 FG44)",
      "nasa_jpl_url" : "http://ssd.jpl.nasa.gov/sbdb.cgi?sstr=3455742",
      "absolute_magnitude_h" : 22.5,
      "estimated_diameter" : {
        "kilometers" : {
          "estimated_diameter_min" : 0.0840533402,
          "estimated_diameter_max" : 0.1879489824
        },
        "meters" : {
          "estimated_diameter_min" : 84.0533402073,
          "estimated_diameter_max" : 187.9489824394
        },
        "miles" : {
          "estimated_diameter_min" : 0.0522283081,
          "estimated_diameter_max" : 0.1167860472
        },
        "feet" : {
          "estimated_diameter_min" : 275.7655606856,
          "estimated_diameter_max" : 616.6305395464
        }
      },
      "is_potentially_hazardous_asteroid" : false,
      "close_approach_data" : [ {
        "close_approach_date" : "2008-10-15",
        "epoch_date_close_approach" : 1224054000000,
        "relative_velocity" : {
          "kilometers_per_second" : "18.4818830308",
          "kilometers_per_hour" : "66534.77891101",
          "miles_per_hour" : "41342.1241516773"
        },
        "miss_distance" : {
          "astronomical" : "0.2399133541",
          "lunar" : "93.3262939453",
          "kilometers" : "35890528",
          "miles" : "22301340"
        },
        "orbiting_body" : "Earth"
      } ],
      "orbital_data" : {
        "orbit_id" : "8",
        "orbit_determination_date" : "2017-04-06 09:00:49",
        "orbit_uncertainty" : "8",
        "minimum_orbit_intersection" : ".0710415",
        "jupiter_tisserand_invariant" : "6.124",
        "epoch_osculation" : "2454922.5",
        "eccentricity" : ".1139274524923721",
        "semi_major_axis" : ".9643924471731348",
        "inclination" : "31.63781138877854",
        "ascending_node_longitude" : "6.7143302281723",
        "orbital_period" : "345.9227521786956",
        "perihelion_distance" : ".8545216724638149",
        "perihelion_argument" : "15.79615045208358",
        "aphelion_distance" : "1.074263221882455",
        "perihelion_time" : "2454763.579218432165",
        "mean_anomaly" : "165.3880266738468",
        "mean_motion" : "1.040694772843483",
        "equinox" : "J2000"
      }
    } ]
  }
}